{
  "type": "FeatureCollection",
  "features": [
    {
      "type": "Feature",
      "properties": {
        "norad_id": 24946,
        "name": "IRIDIUM 33",
        "group": "iridium-33-debris",
        "lat": 72.08035845234913,
        "lon": -126.5840503587298,
        "alt_km": 765.6273958676638,
        "timestamp": "2025-12-21T03:56:51.217818+00:00",
        "meta_object_name": "IRIDIUM 33",
        "meta_object_id": "1997-051C",
        "meta_epoch": "2025-12-20T17:24:25.283232",
        "meta_mean_motion": 14.35042457,
        "meta_eccentricity": 0.0007988,
        "meta_inclination": 86.3864,
        "meta_ra_of_asc_node": 64.8697,
        "meta_arg_of_pericenter": 173.6442,
        "meta_mean_anomaly": 186.4857,
        "meta_ephemeris_type": 0,
        "meta_classification_type": "U",
        "meta_norad_cat_id": 24946,
        "meta_element_set_no": 999,
        "meta_rev_at_epoch": 47949,
        "meta_bstar": 8.185e-05,
        "meta_mean_motion_dot": 2.53e-06,
        "meta_mean_motion_ddot": 0,
        "tle_line1": "1 24946U 97051C   25354.72529263  .00000253  00000+0  81850-4 0  9997",
        "tle_line2": "2 24946  86.3864  64.8697 0007988 173.6442 186.4857 14.35042457479498"
      },
      "geometry": {
        "type": "Point",
        "coordinates": [
          -126.5840503587298,
          72.08035845234913
        ]
      }
    },
    {
      "type": "Feature",
      "properties": {
        "norad_id": 33773,
        "name": "IRIDIUM 33 DEB",
        "group": "iridium-33-debris",
        "lat": -46.27657308939071,
        "lon": 53.24522600912275,
        "alt_km": 763.7036263955333,
        "timestamp": "2025-12-21T03:56:51.217861+00:00",
        "meta_object_name": "IRIDIUM 33 DEB",
        "meta_object_id": "1997-051L",
        "meta_epoch": "2025-12-20T14:51:03.588192",
        "meta_mean_motion": 14.43272103,
        "meta_eccentricity": 0.0013102,
        "meta_inclination": 86.4001,
        "meta_ra_of_asc_node": 57.2506,
        "meta_arg_of_pericenter": 123.5975,
        "meta_mean_anomaly": 236.6478,
        "meta_ephemeris_type": 0,
        "meta_classification_type": "U",
        "meta_norad_cat_id": 33773,
        "meta_element_set_no": 999,
        "meta_rev_at_epoch": 88461,
        "meta_bstar": 0.00020041,
        "meta_mean_motion_dot": 6.95e-06,
        "meta_mean_motion_ddot": 0,
        "tle_line1": "1 33773U 97051L   25354.61879153  .00000695  00000+0  20041-3 0  9993",
        "tle_line2": "2 33773  86.4001  57.2506 0013102 123.5975 236.6478 14.43272103884618"
      },
      "geometry": {
        "type": "Point",
        "coordinates": [
          53.24522600912275,
          -46.27657308939071
        ]
      }
    },
    {
      "type": "Feature",
      "properties": {
        "norad_id": 33775,
        "name": "IRIDIUM 33 DEB",
        "group": "iridium-33-debris",
        "lat": -17.102239729596505,
        "lon": 44.83533642038346,
        "alt_km": 767.4884876473589,
        "timestamp": "2025-12-21T03:56:51.217876+00:00",
        "meta_object_name": "IRIDIUM 33 DEB",
        "meta_object_id": "1997-051N",
        "meta_epoch": "2025-12-20T09:46:27.262272",
        "meta_mean_motion": 14.41483487,
        "meta_eccentricity": 0.00150209,
        "meta_inclination": 86.3628,
        "meta_ra_of_asc_node": 46.28,
        "meta_arg_of_pericenter": 131.6576,
        "meta_mean_anomaly": 244.435,
        "meta_ephemeris_type": 0,
        "meta_classification_type": "U",
        "meta_norad_cat_id": 33775,
        "meta_element_set_no": 999,
        "meta_rev_at_epoch": 88251,
        "meta_bstar": 0.00022414804,
        "meta_mean_motion_dot": 7.48e-06,
        "meta_mean_motion_ddot": 0,
        "tle_line1": "1 33775U 97051N   25354.40725998  .00000748  00000+0  22415-3 0  9995",
        "tle_line2": "2 33775  86.3628  46.2800 0015020 131.6576 244.4350 14.41483487882517"
      },
      "geometry": {
        "type": "Point",
        "coordinates": [
          44.83533642038346,
          -17.102239729596505
        ]
      }
    },
    {
      "type": "Feature",
      "properties": {
        "norad_id": 33776,
        "name": "IRIDIUM 33 DEB",
        "group": "iridium-33-debris",
        "lat": 65.05696387293247,
        "lon": -110.53400590030819,
        "alt_km": 750.824932082307,
        "timestamp": "2025-12-21T03:56:51.217889+00:00",
        "meta_object_name": "IRIDIUM 33 DEB",
        "meta_object_id": "1997-051P",
        "meta_epoch": "2025-12-20T17:57:25.069248",
        "meta_mean_motion": 14.38248019,
        "meta_eccentricity": 0.0015263,
        "meta_inclination": 86.4034,
        "meta_ra_of_asc_node": 77.4128,
        "meta_arg_of_pericenter": 164.7003,
        "meta_mean_anomaly": 316.1077,
        "meta_ephemeris_type": 0,
        "meta_classification_type": "U",
        "meta_norad_cat_id": 33776,
        "meta_element_set_no": 999,
        "meta_rev_at_epoch": 88197,
        "meta_bstar": 0.00019535,
        "meta_mean_motion_dot": 6.14e-06,
        "meta_mean_motion_ddot": 0,
        "tle_line1": "1 33776U 97051P   25354.74820682  .00000614  00000+0  19535-3 0  9990",
        "tle_line2": "2 33776  86.4034  77.4128 0015263 164.7003 316.1077 14.38248019881978"
      },
      "geometry": {
        "type": "Point",
        "coordinates": [
          -110.53400590030819,
          65.05696387293247
        ]
      }
    },
    {
      "type": "Feature",
      "properties": {
        "norad_id": 33777,
        "name": "IRIDIUM 33 DEB",
        "group": "iridium-33-debris",
        "lat": 69.09200769066013,
        "lon": 41.08394665065951,
        "alt_km": 703.8776489674829,
        "timestamp": "2025-12-21T03:56:51.217901+00:00",
        "meta_object_name": "IRIDIUM 33 DEB",
        "meta_object_id": "1997-051Q",
        "meta_epoch": "2025-12-20T12:46:53.076000",
        "meta_mean_motion": 14.55663152,
        "meta_eccentricity": 0.0005789,
        "meta_inclination": 86.3775,
        "meta_ra_of_asc_node": 31.8134,
        "meta_arg_of_pericenter": 214.9048,
        "meta_mean_anomaly": 145.178,
        "meta_ephemeris_type": 0,
        "meta_classification_type": "U",
        "meta_norad_cat_id": 33777,
        "meta_element_set_no": 999,
        "meta_rev_at_epoch": 88647,
        "meta_bstar": 0.00051289,
        "meta_mean_motion_dot": 2.26e-05,
        "meta_mean_motion_ddot": 0,
        "tle_line1": "1 33777U 97051Q   25354.53255875  .00002260  00000+0  51289-3 0  9995",
        "tle_line2": "2 33777  86.3775  31.8134 0005789 214.9048 145.1780 14.55663152886479"
      },
      "geometry": {
        "type": "Point",
        "coordinates": [
          41.08394665065951,
          69.09200769066013
        ]
      }
    },
    {
      "type": "Feature",
      "properties": {
        "norad_id": 33850,
        "name": "IRIDIUM 33 DEB",
        "group": "iridium-33-debris",
        "lat": -15.63400941823382,
        "lon": 25.530679881556516,
        "alt_km": 764.3388691947348,
        "timestamp": "2025-12-21T03:56:51.217913+00:00",
        "meta_object_name": "IRIDIUM 33 DEB",
        "meta_object_id": "1997-051T",
        "meta_epoch": "2025-12-20T20:29:38.135040",
        "meta_mean_motion": 14.42163451,
        "meta_eccentricity": 0.0013008,
        "meta_inclination": 86.3409,
        "meta_ra_of_asc_node": 26.6903,
        "meta_arg_of_pericenter": 136.6945,
        "meta_mean_anomaly": 36.4511,
        "meta_ephemeris_type": 0,
        "meta_classification_type": "U",
        "meta_norad_cat_id": 33850,
        "meta_element_set_no": 999,
        "meta_rev_at_epoch": 88269,
        "meta_bstar": 0.0002583,
        "meta_mean_motion_dot": 8.7e-06,
        "meta_mean_motion_ddot": 0,
        "tle_line1": "1 33850U 97051T   25354.85391360  .00000870  00000+0  25830-3 0  9990",
        "tle_line2": "2 33850  86.3409  26.6903 0013008 136.6945  36.4511 14.42163451882697"
      },
      "geometry": {
        "type": "Point",
        "coordinates": [
          25.530679881556516,
          -15.63400941823382
        ]
      }
    },
    {
      "type": "Feature",
      "properties": {
        "norad_id": 33853,
        "name": "IRIDIUM 33 DEB",
        "group": "iridium-33-debris",
        "lat": 38.72811423882778,
        "lon": 162.89975767255027,
        "alt_km": 836.6930045807867,
        "timestamp": "2025-12-21T03:56:51.217924+00:00",
        "meta_object_name": "IRIDIUM 33 DEB",
        "meta_object_id": "1997-051W",
        "meta_epoch": "2025-12-20T10:42:24.160608",
        "meta_mean_motion": 13.99101393,
        "meta_eccentricity": 0.02072613,
        "meta_inclination": 85.9998,
        "meta_ra_of_asc_node": 346.4315,
        "meta_arg_of_pericenter": 212.032,
        "meta_mean_anomaly": 275.1886,
        "meta_ephemeris_type": 0,
        "meta_classification_type": "U",
        "meta_norad_cat_id": 33853,
        "meta_element_set_no": 999,
        "meta_rev_at_epoch": 85453,
        "meta_bstar": 0.0010652469,
        "meta_mean_motion_dot": 1.87e-05,
        "meta_mean_motion_ddot": 0,
        "tle_line1": "1 33853U 97051W   25354.44611297  .00001870  00000+0  10652-2 0  9998",
        "tle_line2": "2 33853  85.9998 346.4315 0207261 212.0320 275.1886 13.99101393854537"
      },
      "geometry": {
        "type": "Point",
        "coordinates": [
          162.89975767255027,
          38.72811423882778
        ]
      }
    }
  ]
}